#cP2022  3 20 12  0  0.00000000     576 d+D   IGb14 EXT AIUB
## 2202  43200.00000000   300.00000000 59658 0.5000000000000
+   76   G01G02G03G04G05G06G07G08G09G10G11G12G13G14G15G16G17
+        G18G19G20G21G22G23G24G25G26G27G28G29G30G31G32R01R02
+        R03R04R05R07R08R09R12R13R14R15R17R18R19R20R21R22R24
+        E01E02E03E04E05E07E08E10E11E12E13E14E15E18E19E21E24
+        E25E26E27E30E31E33E34E36  0  0  0  0  0  0  0  0  0
++         6  7  6  8  7  6  7  6  7  5  8  7  7  7  7  7  6
++         8  7  7  7  7  7  6  6  6  6  7  7  5  6  6  8  6
++         7  7  7  7  7  6  7  8  7  7  8  8  9  9  8  7  7
++         6  6  6  7  6  5  6  6  7  7  5  7  6  7  7  6  6
++         6  7  5  6  6  7  6  6  0  0  0  0  0  0  0  0  0
%c M  cc GPS ccc cccc cccc cccc cccc ccccc ccccc ccccc ccccc
%c cc cc ccc ccc cccc cccc cccc cccc ccccc ccccc ccccc ccccc
%f  1.2500000  1.025000000  0.00000000000  0.000000000000000
%f  0.0000000  0.000000000  0.00000000000  0.000000000000000
%i    0    0    0    0      0      0      0      0         0
%i    0    0    0    0      0      0      0      0         0
/* Center for Orbit Determination in Europe (CODE)          
/* Ultra-rapid GRE orbits starting year-day 22079 12 hour   
/* Observed/predicted: 23/25 hours (data used up to 080K)   
/* PCV:IGS14      OL/AL:FES2014b NONE     YN ORB:CoN CLK:BRD
*  2022  3 22  5 50  0.00000000
PG01 -13610.304266  22463.926687  -2587.897614    403.116038               P   P
PG02  18329.898810  -9833.674352 -15937.095582   -652.513348               P   P
PG03 -11116.507962  13077.926041 -20340.676914   -174.224760               P   P
PG04  -4081.914542  20015.289111 -16922.440479   -181.892806               P   P
PG05  24176.678832  -5792.912104   9397.423174    -75.541477               P   P
PG06  12721.481965   7265.892191 -22089.588078    239.627636               P   P
PG07   -749.131637  21231.716757  16012.649295    317.199520               P   P
PG08 -11058.011846  11019.181122  21411.065376    -60.808735               P   P
PG09   5750.134653  24536.803719  -8400.471400   -348.414204               P   P
PG10 -18723.629476 -11677.391702  15137.952630   -354.382861               P   P
PG11  19739.326909  -7184.359392 -16252.079660    -58.021341               P   P
PG12  15142.460359 -10999.469237 -19061.565183   -188.576857               P   P
PG13  15045.077850  -1870.357258  21667.680068    280.951491               P   P
PG14  17408.496965  12960.873714  15355.351809    -96.132461               P   P
PG15   9770.392608 -13044.222163  20518.258542    -74.916883               P   P
PG16 -26097.472006   -249.794175   5841.866136   -483.412110               P   P
PG17  13636.675599  21644.611894  -6613.202219    590.401539               P   P
PG18   1884.983202 -21254.778807  15743.928630    214.188102               P   P
PG19  15872.560190  16384.823678 -14024.231241    134.216923               P   P
PG20  26348.438538  -2039.829204   -166.090329    516.197796               P   P
PG21 -17519.019608  17449.121251   9398.843032    159.670922               P   P
PG22 -16639.402639 -13760.879746 -15181.300166    231.272371               P   P
PG23  -7507.698840 -14703.498626  20817.831031     -8.838656               P   P
PG24  14416.452527 -21894.020057   2227.721400    265.672735               P   P
PG25    482.009047 -15432.252438 -21902.664070    301.620560               P   P
PG26 -25468.927493  -5156.563682  -6325.885719    192.711046               P   P
PG27 -16441.906288  -1668.156851  20676.672622    161.743298               P   P
PG28  22901.173264  10138.212749   9001.453526    375.111185               P   P
PG29  -2519.307032 -24502.942412  -9910.439449   -494.195019               P   P
PG30   6528.935582  16240.397211  19985.404690   -519.974834               P   P
PG31 -15092.630249  -4978.918948 -21462.163844   -170.021198               P   P
PG32 -16505.964535 -18647.803312  -9359.787943    -89.580872               P   P
PR01 -18624.099974 -16787.629800   4658.993623      7.335427               P   P
PR02 -19764.397205  -7053.855867 -14499.499416    513.247728               P   P
PR03  -9004.160010   6716.527927 -22856.295373     53.584159               P   P
PR04   6722.456098  16324.719333 -18374.937957    133.057231               P   P
PR05  18578.809733  17059.673349  -3706.686738     89.817236               P   P
PR07   8323.552297  -7337.027774  23008.756312     32.907352               P   P
PR08  -6784.973280 -16448.107653  18350.090926    -64.137392               P   P
PR09  23473.763204  -5337.224081   8556.265348     45.617113               P   P
PR12 -12921.446248  -5700.979056 -21227.147330     17.520040               P   P
PR13 -23124.675545   4630.521973  -9745.871714    -19.749627               P   P
PR14 -20129.526702  12903.356950   8874.714443     75.617805               P   P
PR15  -5347.262804  13137.917021  21214.349227     97.397715               P   P
PR17  -9391.165377  18936.616117  14309.612075    511.476474               P   P
PR18  -3126.428173  25217.373628  -1826.633513    111.054185               P   P
PR19   3800.816243  19254.203988 -16291.864558   -182.483859               P   P
PR20  10577.267428   -695.581533 -23196.428066    -67.200597               P   P
PR21   9044.719841 -19901.914280 -13129.428552   -287.228774               P   P
PR22   2887.519077 -25251.778434   2731.632075   -172.124838               P   P
PR24 -11114.190186   1589.301218  22921.024841     85.516939               P   P
PE01   -581.098926  16664.778265  24452.005509   -601.471180               P   P
PE02    354.440546 -16663.959007 -24467.779509    287.834440               P   P
PE03  -6589.010092 -26065.978929  12371.980679   -539.907870               P   P
PE04  19083.300996  21903.586533   5684.115179   -989.797947               P   P
PE05  10015.456159 -14978.514242  23489.409803   -198.099427               P   P
PE07 -20549.519181  -4665.325071 -20776.010189   -650.778214               P   P
PE08 -19266.031159 -21638.326889  -6034.936072   -499.232475               P   P
PE10  15469.315813   4807.737793 -24779.329121   -501.959704               P   P
PE11  19038.562704  -6514.159352 -21723.414667   4167.368077               P   P
PE12   9759.735119  14866.722284 -23656.362687   4701.454050               P   P
PE13 -18814.774953   5830.668958  22095.490660    427.437857               P   P
PE14  -8630.931163  16314.295229  17116.824932  -1786.771108               P   P
PE15  -9613.800087 -14985.076434  23657.354159    756.335084               P   P
PE18  17350.035597 -10233.313847 -23985.989252  -1655.597585               P   P
PE19   4603.094011  25456.596700 -14372.931458  -1721.382458               P   P
PE21 -20319.035890  12839.377455  17275.776429   -723.948939               P   P
PE24  29546.607297   -466.498351   1413.917194   -518.659999               P   P
PE25  20522.359240 -12734.066800 -17105.426254   -567.668269               P   P
PE26 -16633.329210  23578.402811   6592.308607   -940.549219               P   P
PE27 -29574.733667   1406.346285   -229.683575   -258.660678               P   P
PE30 -20448.823253 -11409.647941 -18133.256054   -368.201783               P   P
PE31  21339.886994  10762.485046  17458.766471   -493.893915               P   P
PE33  -5213.289007  26863.105355 -11261.005236   -458.355166               P   P
PE34   5015.800322 -26833.777549  11441.640479   -508.027793               P   P
PE36  16905.742462 -23102.322056  -7553.526109   -348.724751               P   P
EOF
